[{"OBJECT_NAME":"OBJECT C","OBJECT_ID":"2025-313C","EPOCH":"2026-03-09T21:13:39.359712","MEAN_MOTION":14.86307196,"ECCENTRICITY":0.01562422,"INCLINATION":97.6236,"RA_OF_ASC_NODE":143.4861,"ARG_OF_PERICENTER":305.4656,"MEAN_ANOMALY":53.2062,"EPHEMERIS_TYPE":0,"CLASSIFICATION_TYPE":"U","NORAD_CAT_ID":67250,"ELEMENT_SET_NO":999,"REV_AT_EPOCH":1059,"BSTAR":0.0010268788,"MEAN_MOTION_DOT":0.00011246,"MEAN_MOTION_DDOT":0},{"OBJECT_NAME":"ASAP-S","OBJECT_ID":"2011-076G","EPOCH":"2026-03-09T17:04:01.263936","MEAN_MOTION":15.2280587,"ECCENTRICITY":0.00082377,"INCLINATION":98.0168,"RA_OF_ASC_NODE":352.0786,"ARG_OF_PERICENTER":129.3662,"MEAN_ANOMALY":230.8304,"EPHEMERIS_TYPE":0,"CLASSIFICATION_TYPE":"U","NORAD_CAT_ID":38013,"ELEMENT_SET_NO":999,"REV_AT_EPOCH":77768,"BSTAR":0.00058516402,"MEAN_MOTION_DOT":0.00013629,"MEAN_MOTION_DDOT":0}]
